GLOBALSTAR M001         
1 25162U 98008A   24199.61371788 -.00000034  00000+0  48358-3 0  9995
2 25162  52.0005 227.0122 0001715 259.4040 250.0766 12.38188517202266
GLOBALSTAR M004         
1 25163U 98008B   24199.83758914 -.00000066  00000+0  21209-3 0  9991
2 25163  52.0021 354.1508 0002164 263.5583 249.9373 12.63365237219423
GLOBALSTAR M002         
1 25164U 98008C   24199.74537481 -.00000093  00000+0 -32089-3 0  9995
2 25164  52.0039 358.7573 0000638 228.0065 132.0701 11.61502682145205
GLOBALSTAR M003         
1 25165U 98008D   24199.81101285  .00000024  00000+0  12067-2 0  9998
2 25165  51.9916  14.6053 0007661 345.7074 118.7333 12.12019308192679
GLOBALSTAR M006         
1 25307U 98023B   24199.68321075 -.00000075  00000+0  20948-4 0  9995
2 25307  51.9965 329.1427 0003700 211.0916 161.9718 11.58163238178076
GLOBALSTAR M015         
1 25308U 98023C   24199.86324845 -.00000130  00000+0 -12806-2 0  9999
2 25308  51.9833  51.8401 0012106 199.1445 233.4223 11.48849928155656
GLOBALSTAR M008         
1 25309U 98023D   24199.86514644 -.00000094  00000+0  16115-4 0  9995
2 25309  51.9971  87.3216 0002085 177.7674 261.9936 12.36045629196509
